{"type":"FeatureCollection","features":[{"type":"Feature","geometry":{"type":"Polygon","coordinates":[[[-75.68886,4.49937],[-75.68399,4.51822],[-75.68057,4.52018],[-75.68219,4.52377],[-75.67201,4.52254],[-75.67056,4.52623],[-75.665,4.52747],[-75.66002,4.53706],[-75.64191,4.55541],[-75.63923,4.5658],[-75.63267,4.56993],[-75.64107,4.57877],[-75.64251,4.58841],[-75.64364,4.58138],[-75.65938,4.57629],[-75.66534,4.56046],[-75.67451,4.55135],[-75.68199,4.54929],[-75.69464,4.55318],[-75.70414,4.5499],[-75.70411,4.54687],[-75.71182,4.54746],[-75.71284,4.54397],[-75.71501,4.54574],[-75.71979,4.54252],[-75.72248,4.54499],[-75.72889,4.54144],[-75.73046,4.54372],[-75.73421,4.53847],[-75.75065,4.54099],[-75.76458,4.53832],[-75.76839,4.5347],[-75.76839,4.52261],[-75.77648,4.51644],[-75.78201,4.49832],[-75.78659,4.49315],[-75.78558,4.48977],[-75.78933,4.48871],[-75.7865,4.48923],[-75.78475,4.48387],[-75.79594,4.48168],[-75.7971,4.47849],[-75.78514,4.48191],[-75.77583,4.48016],[-75.76956,4.48496],[-75.74275,4.48906],[-75.75255,4.47995],[-75.76807,4.4767],[-75.77062,4.47217],[-75.76751,4.46884],[-75.76403,4.47105],[-75.7665,4.45656],[-75.77695,4.44957],[-75.76685,4.45102],[-75.76707,4.44533],[-75.75897,4.45183],[-75.75759,4.44718],[-75.76251,4.42505],[-75.76753,4.41868],[-75.78334,4.4096],[-75.7791,4.39946],[-75.77502,4.40014],[-75.77465,4.39621],[-75.76483,4.39579],[-75.75772,4.40239],[-75.75778,4.40851],[-75.74533,4.42588],[-75.7464,4.4307],[-75.73612,4.43312],[-75.73304,4.43865],[-75.72465,4.44282],[-75.72559,4.44573],[-75.7205,4.44655],[-75.71795,4.4537],[-75.71539,4.45362],[-75.71247,4.46616],[-75.70828,4.46665],[-75.70437,4.48392],[-75.69139,4.49318],[-75.68886,4.49937]]]},"properties":{"DPTO_CCDGO":"63","MPIO_CCDGO":"001","MPIO_CDPMP":"63001","DPTO_CNMBRE":"QUINDÍO","MPIO_CNMBRE":"ARMENIA","MPIO_NANO":2025}},{"type":"Feature","geometry":{"type":"Polygon","coordinates":[[[-75.72799,4.40562],[-75.74454,4.40318],[-75.75707,4.39529],[-75.75549,4.37797],[-75.78033,4.36553],[-75.78375,4.34717],[-75.77517,4.3514],[-75.77251,4.34448],[-75.76609,4.3443],[-75.76323,4.33773],[-75.74786,4.33381],[-75.73631,4.34051],[-75.72251,4.34128],[-75.71629,4.34507],[-75.71641,4.3776],[-75.7212,4.38588],[-75.72249,4.39995],[-75.72799,4.40562]]]},"properties":{"DPTO_CCDGO":"63","MPIO_CCDGO":"111","MPIO_CDPMP":"63111","DPTO_CNMBRE":"QUINDÍO","MPIO_CNMBRE":"BUENAVISTA","MPIO_NANO":2025}},{"type":"Feature","geometry":{"type":"Polygon","coordinates":[[[-75.68909,4.4992],[-75.69139,4.49318],[-75.70437,4.48392],[-75.70828,4.46665],[-75.71247,4.46616],[-75.71539,4.45362],[-75.71795,4.4537],[-75.7205,4.44655],[-75.72559,4.44573],[-75.72465,4.44282],[-75.73304,4.43865],[-75.73612,4.43312],[-75.7464,4.4307],[-75.74544,4.42563],[-75.76357,4.39634],[-75.78447,4.39429],[-75.78662,4.39639],[-75.79266,4.39297],[-75.80315,4.39607],[-75.80099,4.38999],[-75.80497,4.38438],[-75.80378,4.36889],[-75.78979,4.35263],[-75.7925,4.33665],[-75.7832,4.34807],[-75.78033,4.36553],[-75.75549,4.37797],[-75.75707,4.39529],[-75.74454,4.40318],[-75.72405,4.40583],[-75.72537,4.40862],[-75.71564,4.41187],[-75.70471,4.42944],[-75.69572,4.42422],[-75.68562,4.4257],[-75.67286,4.41973],[-75.65821,4.42196],[-75.65006,4.41912],[-75.63997,4.41966],[-75.63606,4.42402],[-75.63075,4.42176],[-75.62774,4.42694],[-75.61111,4.43179],[-75.60067,4.43159],[-75.58753,4.42011],[-75.58359,4.42213],[-75.57667,4.43743],[-75.57735,4.45269],[-75.57029,4.4571],[-75.56056,4.47106],[-75.55549,4.47218],[-75.56773,4.48123],[-75.56482,4.49563],[-75.56733,4.49594],[-75.56878,4.50332],[-75.57913,4.51563],[-75.58702,4.51784],[-75.5892,4.52596],[-75.59768,4.53248],[-75.60125,4.54239],[-75.61376,4.54402],[-75.60913,4.56016],[-75.61137,4.56574],[-75.61804,4.56902],[-75.63254,4.57074],[-75.63923,4.5658],[-75.64191,4.55541],[-75.66002,4.53706],[-75.665,4.52747],[-75.67056,4.52623],[-75.67201,4.52254],[-75.68219,4.52377],[-75.68057,4.52018],[-75.68399,4.51822],[-75.68909,4.4992]]]},"properties":{"DPTO_CCDGO":"63","MPIO_CCDGO":"130","MPIO_CDPMP":"63130","DPTO_CNMBRE":"QUINDÍO","MPIO_CNMBRE":"CALARCÁ","MPIO_NANO":2025}},{"type":"Feature","geometry":{"type":"Polygon","coordinates":[[[-75.59921,4.67574],[-75.60809,4.67421],[-75.62508,4.6606],[-75.63751,4.65751],[-75.64409,4.66088],[-75.65239,4.6534],[-75.65776,4.65282],[-75.67108,4.63696],[-75.67835,4.62231],[-75.69296,4.61592],[-75.69733,4.60663],[-75.70553,4.6044],[-75.7244,4.58616],[-75.73096,4.58597],[-75.73184,4.58138],[-75.73519,4.58169],[-75.73815,4.57661],[-75.73378,4.5784],[-75.73102,4.57374],[-75.72136,4.56987],[-75.72739,4.55774],[-75.72127,4.55645],[-75.72542,4.5529],[-75.71872,4.55286],[-75.71855,4.55059],[-75.74099,4.53959],[-75.73421,4.53847],[-75.73142,4.54324],[-75.72745,4.54155],[-75.72248,4.54499],[-75.71979,4.54252],[-75.71501,4.54574],[-75.71284,4.54397],[-75.71182,4.54746],[-75.70411,4.54687],[-75.70414,4.5499],[-75.69464,4.55318],[-75.68126,4.54926],[-75.66994,4.55406],[-75.65918,4.57651],[-75.64364,4.58138],[-75.63559,4.60752],[-75.60291,4.64876],[-75.60163,4.65593],[-75.59571,4.65894],[-75.59562,4.66831],[-75.59921,4.67574]]]},"properties":{"DPTO_CCDGO":"63","MPIO_CCDGO":"190","MPIO_CDPMP":"63190","DPTO_CNMBRE":"QUINDÍO","MPIO_CNMBRE":"CIRCASIA","MPIO_NANO":2025}},{"type":"Feature","geometry":{"type":"Polygon","coordinates":[[[-75.59235,4.4236],[-75.60014,4.43136],[-75.61102,4.43179],[-75.62774,4.42694],[-75.63075,4.42176],[-75.63644,4.42395],[-75.64058,4.41948],[-75.65821,4.42196],[-75.67286,4.41973],[-75.68562,4.4257],[-75.69572,4.42422],[-75.70471,4.42944],[-75.71564,4.41187],[-75.72799,4.40562],[-75.72249,4.39995],[-75.71794,4.37868],[-75.70973,4.37294],[-75.70616,4.36552],[-75.70353,4.3689],[-75.69276,4.36837],[-75.68695,4.35747],[-75.64643,4.36261],[-75.63193,4.38122],[-75.613,4.37966],[-75.60018,4.36474],[-75.59332,4.36197],[-75.58835,4.37153],[-75.59044,4.37721],[-75.5828,4.38692],[-75.57893,4.40863],[-75.58064,4.4226],[-75.58271,4.4242],[-75.58815,4.4201],[-75.59235,4.4236]]]},"properties":{"DPTO_CCDGO":"63","MPIO_CCDGO":"212","MPIO_CDPMP":"63212","DPTO_CNMBRE":"QUINDÍO","MPIO_CNMBRE":"CÓRDOBA","MPIO_NANO":2025}},{"type":"Feature","geometry":{"type":"Polygon","coordinates":[[[-75.56453,4.70106],[-75.58273,4.70757],[-75.59396,4.70276],[-75.59879,4.70769],[-75.6065,4.70946],[-75.61435,4.70135],[-75.62154,4.70104],[-75.62662,4.70458],[-75.63868,4.7032],[-75.64671,4.70952],[-75.65979,4.69989],[-75.66756,4.70235],[-75.68339,4.71455],[-75.68808,4.71429],[-75.69285,4.7195],[-75.70304,4.72133],[-75.71361,4.71376],[-75.70724,4.65708],[-75.71606,4.65218],[-75.74094,4.65472],[-75.73652,4.63337],[-75.74457,4.62659],[-75.74733,4.61845],[-75.73009,4.60838],[-75.70664,4.62514],[-75.70481,4.62092],[-75.7086,4.61565],[-75.69929,4.61605],[-75.70169,4.60708],[-75.69747,4.60654],[-75.69297,4.61591],[-75.67832,4.62234],[-75.67108,4.63696],[-75.65776,4.65282],[-75.65239,4.6534],[-75.64409,4.66088],[-75.63751,4.65751],[-75.62508,4.6606],[-75.60809,4.67421],[-75.59568,4.6769],[-75.58914,4.68935],[-75.58204,4.69018],[-75.57039,4.70034],[-75.56453,4.70106]]]},"properties":{"DPTO_CCDGO":"63","MPIO_CCDGO":"272","MPIO_CDPMP":"63272","DPTO_CNMBRE":"QUINDÍO","MPIO_CNMBRE":"FILANDIA","MPIO_NANO":2025}},{"type":"Feature","geometry":{"type":"Polygon","coordinates":[[[-75.66122,4.22424],[-75.66123,4.22982],[-75.66761,4.22981],[-75.67063,4.23737],[-75.69777,4.24196],[-75.72024,4.22937],[-75.73028,4.22877],[-75.73566,4.23574],[-75.74113,4.23626],[-75.7434,4.24055],[-75.75681,4.2482],[-75.7454,4.2744],[-75.74575,4.28393],[-75.75664,4.28639],[-75.76343,4.29248],[-75.772,4.29285],[-75.77549,4.29934],[-75.7791,4.29866],[-75.79488,4.31077],[-75.79498,4.30443],[-75.78969,4.30087],[-75.78749,4.29297],[-75.79296,4.28559],[-75.79876,4.26355],[-75.80724,4.25674],[-75.81064,4.24624],[-75.82399,4.22585],[-75.82525,4.21314],[-75.81947,4.20162],[-75.83703,4.16075],[-75.84201,4.15555],[-75.84223,4.12436],[-75.83309,4.1146],[-75.83904,4.09757],[-75.82001,4.09867],[-75.79395,4.08831],[-75.78497,4.08991],[-75.78409,4.08491],[-75.77445,4.07622],[-75.75273,4.07714],[-75.747,4.09528],[-75.73264,4.10258],[-75.73311,4.11414],[-75.71986,4.11235],[-75.71459,4.12672],[-75.70582,4.12682],[-75.70267,4.1319],[-75.69644,4.13195],[-75.69127,4.13894],[-75.69276,4.15191],[-75.68962,4.15466],[-75.69156,4.1604],[-75.68806,4.16738],[-75.6692,4.18485],[-75.66648,4.19421],[-75.65619,4.2005],[-75.65438,4.21429],[-75.65984,4.21622],[-75.65834,4.22214],[-75.66122,4.22424]]]},"properties":{"DPTO_CCDGO":"63","MPIO_CCDGO":"302","MPIO_CDPMP":"63302","DPTO_CNMBRE":"QUINDÍO","MPIO_CNMBRE":"GÉNOVA","MPIO_NANO":2025}},{"type":"Feature","geometry":{"type":"Polygon","coordinates":[[[-75.88588,4.41133],[-75.8802,4.41338],[-75.87784,4.40994],[-75.86818,4.4095],[-75.85735,4.41528],[-75.85401,4.41209],[-75.85486,4.40804],[-75.85004,4.40839],[-75.84823,4.40434],[-75.83786,4.40085],[-75.82767,4.40737],[-75.81954,4.40188],[-75.81244,4.40452],[-75.81001,4.3985],[-75.79805,4.39375],[-75.77465,4.39621],[-75.77502,4.40014],[-75.7791,4.39946],[-75.78354,4.40581],[-75.7834,4.40945],[-75.76753,4.41868],[-75.76251,4.42505],[-75.75757,4.4476],[-75.75897,4.45183],[-75.76707,4.44533],[-75.76685,4.45102],[-75.77695,4.44957],[-75.7665,4.45656],[-75.76403,4.47105],[-75.76751,4.46884],[-75.77062,4.47217],[-75.76807,4.4767],[-75.75255,4.47995],[-75.74275,4.48906],[-75.76956,4.48496],[-75.77583,4.48016],[-75.78514,4.48191],[-75.7971,4.47849],[-75.80531,4.47115],[-75.80503,4.46448],[-75.81072,4.46331],[-75.80964,4.45967],[-75.81983,4.45194],[-75.83602,4.45071],[-75.85724,4.46157],[-75.86527,4.46241],[-75.86897,4.45469],[-75.86559,4.4545],[-75.88324,4.4461],[-75.88818,4.44654],[-75.88337,4.4437],[-75.88797,4.43919],[-75.88756,4.43012],[-75.89139,4.42644],[-75.89404,4.42898],[-75.8958,4.42449],[-75.8912,4.42058],[-75.89499,4.41967],[-75.89429,4.41547],[-75.88989,4.41691],[-75.88588,4.41133]]]},"properties":{"DPTO_CCDGO":"63","MPIO_CCDGO":"401","MPIO_CDPMP":"63401","DPTO_CNMBRE":"QUINDÍO","MPIO_CNMBRE":"LA TEBAIDA","MPIO_NANO":2025}},{"type":"Feature","geometry":{"type":"Polygon","coordinates":[[[-75.74093,4.53956],[-75.71853,4.55069],[-75.71872,4.55286],[-75.72542,4.5529],[-75.72127,4.55645],[-75.72739,4.55774],[-75.72136,4.56987],[-75.73102,4.57374],[-75.73378,4.5784],[-75.73791,4.57636],[-75.73519,4.58169],[-75.74048,4.57571],[-75.74394,4.57727],[-75.75095,4.56817],[-75.75728,4.57048],[-75.76955,4.56844],[-75.77272,4.56397],[-75.77724,4.56721],[-75.78219,4.56242],[-75.79938,4.56655],[-75.8117,4.574],[-75.81677,4.57043],[-75.82165,4.5715],[-75.82318,4.56847],[-75.83195,4.57205],[-75.83387,4.56933],[-75.84004,4.57604],[-75.84302,4.57106],[-75.84489,4.57458],[-75.84758,4.57197],[-75.85315,4.57955],[-75.86339,4.57875],[-75.8683,4.57316],[-75.86412,4.57337],[-75.86618,4.56413],[-75.87709,4.55124],[-75.87047,4.54761],[-75.8711,4.54279],[-75.87952,4.53858],[-75.8813,4.52762],[-75.87189,4.52459],[-75.87362,4.51933],[-75.87058,4.51787],[-75.87272,4.49878],[-75.87912,4.48603],[-75.87183,4.47868],[-75.87329,4.47174],[-75.88122,4.46903],[-75.87744,4.46571],[-75.87891,4.46063],[-75.8693,4.45457],[-75.86561,4.46207],[-75.86123,4.46287],[-75.83598,4.4507],[-75.81412,4.45441],[-75.8096,4.45975],[-75.81077,4.46324],[-75.80502,4.46449],[-75.80531,4.47115],[-75.79779,4.47659],[-75.79602,4.48162],[-75.78476,4.48387],[-75.7865,4.48923],[-75.78933,4.48871],[-75.78558,4.48977],[-75.78659,4.49315],[-75.78201,4.49832],[-75.77648,4.51644],[-75.76839,4.52261],[-75.76837,4.53473],[-75.76103,4.53934],[-75.74093,4.53956]]]},"properties":{"DPTO_CCDGO":"63","MPIO_CCDGO":"470","MPIO_CDPMP":"63470","DPTO_CNMBRE":"QUINDÍO","MPIO_CNMBRE":"MONTENEGRO","MPIO_NANO":2025}},{"type":"Feature","geometry":{"type":"Polygon","coordinates":[[[-75.59332,4.36197],[-75.60018,4.36474],[-75.613,4.37966],[-75.63193,4.38122],[-75.64643,4.36261],[-75.68695,4.35747],[-75.69276,4.36837],[-75.70353,4.3689],[-75.70616,4.36552],[-75.70973,4.37294],[-75.71648,4.37698],[-75.7151,4.34844],[-75.71824,4.34325],[-75.73631,4.34051],[-75.75103,4.3341],[-75.76323,4.33773],[-75.76552,4.34375],[-75.77237,4.34437],[-75.77707,4.35146],[-75.79028,4.3409],[-75.79717,4.31308],[-75.7791,4.29866],[-75.77544,4.2993],[-75.772,4.29285],[-75.76343,4.29248],[-75.75664,4.28639],[-75.74575,4.28393],[-75.7454,4.2744],[-75.75681,4.2482],[-75.7434,4.24055],[-75.74113,4.23626],[-75.73566,4.23574],[-75.73028,4.22877],[-75.72024,4.22937],[-75.69777,4.24196],[-75.67063,4.23737],[-75.66761,4.22981],[-75.66123,4.22982],[-75.66177,4.22491],[-75.65834,4.22214],[-75.64638,4.22624],[-75.64789,4.23037],[-75.64331,4.24605],[-75.62346,4.25753],[-75.61677,4.27233],[-75.60678,4.27246],[-75.59669,4.28026],[-75.59629,4.28297],[-75.60441,4.28916],[-75.60074,4.30204],[-75.5959,4.30489],[-75.5978,4.31328],[-75.59296,4.31889],[-75.60032,4.33386],[-75.59307,4.34842],[-75.59332,4.36197]]]},"properties":{"DPTO_CCDGO":"63","MPIO_CCDGO":"548","MPIO_CDPMP":"63548","DPTO_CNMBRE":"QUINDÍO","MPIO_CNMBRE":"PIJAO","MPIO_NANO":2025}},{"type":"Feature","geometry":{"type":"Polygon","coordinates":[[[-75.74094,4.65472],[-75.75787,4.65074],[-75.77376,4.65475],[-75.78217,4.65261],[-75.78528,4.65919],[-75.80153,4.6594],[-75.8072,4.65614],[-75.82593,4.6632],[-75.83627,4.6444],[-75.84762,4.63867],[-75.85184,4.62409],[-75.85907,4.6162],[-75.86496,4.61476],[-75.86692,4.60832],[-75.86071,4.60125],[-75.85976,4.59517],[-75.87087,4.58658],[-75.87213,4.57849],[-75.86695,4.5752],[-75.86099,4.58011],[-75.85317,4.57955],[-75.84749,4.57191],[-75.8449,4.57458],[-75.84296,4.57107],[-75.84005,4.57604],[-75.834,4.56936],[-75.83195,4.57205],[-75.8232,4.56847],[-75.82165,4.5715],[-75.81677,4.57043],[-75.81172,4.574],[-75.79938,4.56655],[-75.78221,4.56242],[-75.77724,4.56721],[-75.77272,4.56397],[-75.76955,4.56844],[-75.75728,4.57048],[-75.75081,4.56825],[-75.74372,4.57742],[-75.74047,4.57572],[-75.73532,4.58164],[-75.7321,4.58108],[-75.72951,4.58701],[-75.72464,4.58604],[-75.71968,4.59306],[-75.71417,4.59386],[-75.71308,4.59837],[-75.70145,4.60649],[-75.69917,4.61559],[-75.70857,4.61561],[-75.70481,4.62092],[-75.70675,4.62516],[-75.73009,4.60838],[-75.74715,4.61826],[-75.74457,4.62659],[-75.73652,4.63337],[-75.74094,4.65472]]]},"properties":{"DPTO_CCDGO":"63","MPIO_CCDGO":"594","MPIO_CDPMP":"63594","DPTO_CNMBRE":"QUINDÍO","MPIO_CNMBRE":"QUIMBAYA","MPIO_NANO":2025}},{"type":"Feature","geometry":{"type":"Polygon","coordinates":[[[-75.38871,4.71544],[-75.39566,4.7155],[-75.40538,4.71026],[-75.41191,4.6989],[-75.42345,4.69323],[-75.43216,4.69664],[-75.43871,4.69532],[-75.44035,4.68171],[-75.4646,4.67939],[-75.47938,4.66317],[-75.49479,4.66832],[-75.50755,4.68746],[-75.51343,4.68836],[-75.51371,4.69324],[-75.52796,4.69319],[-75.54579,4.70148],[-75.56873,4.70103],[-75.57458,4.69435],[-75.58914,4.68935],[-75.59407,4.68341],[-75.59501,4.67772],[-75.59921,4.67574],[-75.59566,4.65906],[-75.60163,4.65593],[-75.60291,4.64876],[-75.63559,4.60752],[-75.64258,4.58864],[-75.64132,4.57936],[-75.63162,4.57],[-75.61132,4.56568],[-75.60921,4.55708],[-75.61376,4.54402],[-75.60125,4.54239],[-75.59768,4.53248],[-75.5892,4.52596],[-75.58702,4.51784],[-75.57913,4.51563],[-75.56878,4.50332],[-75.56733,4.49594],[-75.56482,4.49563],[-75.56775,4.48132],[-75.56013,4.47397],[-75.55215,4.47355],[-75.53561,4.4947],[-75.52463,4.49793],[-75.52784,4.51464],[-75.52201,4.52725],[-75.52468,4.54234],[-75.51887,4.54612],[-75.51504,4.55559],[-75.49013,4.56974],[-75.48443,4.58206],[-75.47211,4.58824],[-75.46887,4.59832],[-75.45,4.60293],[-75.43232,4.60106],[-75.42806,4.60816],[-75.421,4.61086],[-75.41539,4.62448],[-75.41664,4.6365],[-75.42248,4.6446],[-75.42151,4.65862],[-75.41593,4.6709],[-75.40068,4.6907],[-75.38329,4.7038],[-75.38871,4.71544]]]},"properties":{"DPTO_CCDGO":"63","MPIO_CCDGO":"690","MPIO_CDPMP":"63690","DPTO_CNMBRE":"QUINDÍO","MPIO_CNMBRE":"SALENTO","MPIO_NANO":2025}},{"type":"Feature","geometry":{"type":"Polygon","coordinates":[[[-75.70848,4.87303],[-75.71878,4.88512],[-75.72301,4.88398],[-75.7295,4.88996],[-75.73508,4.88815],[-75.73842,4.89091],[-75.76445,4.87181],[-75.77388,4.86957],[-75.78596,4.88816],[-75.80495,4.88847],[-75.80754,4.89959],[-75.81535,4.90608],[-75.81844,4.90283],[-75.83111,4.90189],[-75.83526,4.88363],[-75.84224,4.87014],[-75.88589,4.89282],[-75.9034,4.87659],[-75.90733,4.88389],[-75.91211,4.8841],[-75.91603,4.87854],[-75.91148,4.86154],[-75.90039,4.85068],[-75.90622,4.84774],[-75.90257,4.8378],[-75.90969,4.82814],[-75.91076,4.81659],[-75.91651,4.8137],[-75.92097,4.81726],[-75.93571,4.80773],[-75.93063,4.80528],[-75.92954,4.80046],[-75.92287,4.80219],[-75.91747,4.79449],[-75.92036,4.78908],[-75.92794,4.78747],[-75.92802,4.78326],[-75.92158,4.77814],[-75.92888,4.77924],[-75.9293,4.7687],[-75.92045,4.76978],[-75.92325,4.76026],[-75.91515,4.76374],[-75.91299,4.76085],[-75.91681,4.75655],[-75.90773,4.75206],[-75.89774,4.75882],[-75.88864,4.75468],[-75.87848,4.76338],[-75.8781,4.76882],[-75.87272,4.7668],[-75.87096,4.77624],[-75.86983,4.77282],[-75.86428,4.77309],[-75.85197,4.77865],[-75.84798,4.77648],[-75.84454,4.75966],[-75.84858,4.73854],[-75.85619,4.73192],[-75.8561,4.72783],[-75.85086,4.73401],[-75.84123,4.72828],[-75.8311,4.73782],[-75.8189,4.73436],[-75.81126,4.72729],[-75.80259,4.72821],[-75.7998,4.72105],[-75.79057,4.71641],[-75.78499,4.72178],[-75.77937,4.71976],[-75.77604,4.72177],[-75.77021,4.71402],[-75.76393,4.71527],[-75.75396,4.70988],[-75.74675,4.71273],[-75.73453,4.70797],[-75.73096,4.71036],[-75.72975,4.70793],[-75.71411,4.71295],[-75.70294,4.72136],[-75.69285,4.7195],[-75.68808,4.71429],[-75.68339,4.71455],[-75.66756,4.70235],[-75.65979,4.69989],[-75.64671,4.70952],[-75.63868,4.7032],[-75.62662,4.70458],[-75.62154,4.70104],[-75.61435,4.70135],[-75.6065,4.70946],[-75.59308,4.70263],[-75.58273,4.70757],[-75.56105,4.69948],[-75.55426,4.70281],[-75.54579,4.70148],[-75.52796,4.69319],[-75.51371,4.69324],[-75.51343,4.68836],[-75.50755,4.68746],[-75.49479,4.66832],[-75.47938,4.66317],[-75.4646,4.67939],[-75.44035,4.68171],[-75.43871,4.69532],[-75.43216,4.69664],[-75.42368,4.69315],[-75.41251,4.6985],[-75.40538,4.71026],[-75.39566,4.7155],[-75.38871,4.71544],[-75.37794,4.72958],[-75.388,4.74685],[-75.38264,4.75935],[-75.37892,4.76129],[-75.37991,4.77628],[-75.3755,4.80268],[-75.39537,4.78636],[-75.40881,4.79277],[-75.4199,4.77318],[-75.43656,4.76214],[-75.44571,4.75155],[-75.44906,4.73943],[-75.45497,4.73418],[-75.46097,4.73605],[-75.46666,4.73257],[-75.46892,4.72007],[-75.48561,4.71618],[-75.50075,4.70479],[-75.51285,4.70879],[-75.52292,4.69938],[-75.53468,4.70025],[-75.53738,4.70622],[-75.55051,4.71068],[-75.57262,4.72878],[-75.58851,4.73458],[-75.59414,4.74264],[-75.60338,4.74443],[-75.60592,4.7596],[-75.62499,4.76554],[-75.629,4.77332],[-75.64277,4.77847],[-75.64909,4.78725],[-75.64568,4.7918],[-75.65101,4.7975],[-75.69212,4.82098],[-75.70658,4.82275],[-75.71512,4.82012],[-75.71904,4.8296],[-75.71326,4.86345],[-75.70848,4.87303]]]},"properties":{"DPTO_CCDGO":"66","MPIO_CCDGO":"001","MPIO_CDPMP":"66001","DPTO_CNMBRE":"RISARALDA","MPIO_CNMBRE":"PEREIRA","MPIO_NANO":2024}},{"type":"Feature","geometry":{"type":"Polygon","coordinates":[[[-75.92203,5.04205],[-75.91225,5.07367],[-75.91735,5.07869],[-75.91547,5.08607],[-75.9088,5.09077],[-75.89892,5.10666],[-75.90245,5.11106],[-75.89889,5.11323],[-75.89988,5.11844],[-75.88838,5.11656],[-75.89199,5.13091],[-75.88378,5.13055],[-75.89066,5.13992],[-75.90068,5.13627],[-75.90396,5.1479],[-75.93092,5.17646],[-75.93116,5.20573],[-75.92654,5.2111],[-75.92859,5.22661],[-75.94325,5.22385],[-75.96239,5.23654],[-75.96821,5.22002],[-75.98593,5.20371],[-75.97714,5.19435],[-75.97672,5.17826],[-75.98849,5.15897],[-76.0082,5.15516],[-76.01628,5.14892],[-76.04252,5.14526],[-76.06049,5.13199],[-76.04396,5.12511],[-76.03247,5.12783],[-76.00038,5.12694],[-75.98012,5.10436],[-75.97337,5.10149],[-75.9729,5.09238],[-75.96716,5.09435],[-75.95551,5.08577],[-75.95254,5.08865],[-75.94596,5.08775],[-75.94234,5.08051],[-75.94646,5.07724],[-75.94662,5.06678],[-75.95173,5.061],[-75.95008,5.05462],[-75.93847,5.04761],[-75.93243,5.04932],[-75.92726,5.0413],[-75.92203,5.04205]]]},"properties":{"DPTO_CCDGO":"66","MPIO_CCDGO":"045","MPIO_CDPMP":"66045","DPTO_CNMBRE":"RISARALDA","MPIO_CNMBRE":"APÍA","MPIO_NANO":2024}},{"type":"Feature","geometry":{"type":"Polygon","coordinates":[[[-75.94399,4.98957],[-75.9605,4.98895],[-75.96296,4.98599],[-75.96487,4.96148],[-75.98563,4.96477],[-75.98486,4.95539],[-75.99411,4.95217],[-75.98552,4.94329],[-75.98555,4.9333],[-75.99203,4.9199],[-75.98573,4.90345],[-75.98969,4.88268],[-75.98816,4.87451],[-75.97443,4.86098],[-75.96775,4.85983],[-75.95574,4.86479],[-75.94281,4.85671],[-75.93447,4.86271],[-75.92776,4.86228],[-75.9228,4.8692],[-75.91848,4.86942],[-75.91424,4.87351],[-75.91599,4.87977],[-75.91302,4.88355],[-75.90789,4.88431],[-75.9034,4.87659],[-75.88589,4.89282],[-75.88963,4.89794],[-75.88934,4.90443],[-75.88579,4.90434],[-75.88846,4.90906],[-75.88463,4.90933],[-75.87979,4.9193],[-75.88108,4.92573],[-75.88912,4.92815],[-75.90069,4.94423],[-75.90491,4.94332],[-75.9113,4.95177],[-75.91739,4.95309],[-75.9199,4.96295],[-75.93562,4.97506],[-75.93651,4.98722],[-75.94399,4.98957]]]},"properties":{"DPTO_CCDGO":"66","MPIO_CCDGO":"075","MPIO_CDPMP":"66075","DPTO_CNMBRE":"RISARALDA","MPIO_CNMBRE":"BALBOA","MPIO_NANO":2024}},{"type":"Feature","geometry":{"type":"Polygon","coordinates":[[[-75.86813,5.27394],[-75.88446,5.27115],[-75.89408,5.25764],[-75.92152,5.25694],[-75.92576,5.25175],[-75.92431,5.24579],[-75.9286,5.22621],[-75.92654,5.2111],[-75.93116,5.20573],[-75.93135,5.17834],[-75.90396,5.1479],[-75.90052,5.13613],[-75.89189,5.14024],[-75.88752,5.13855],[-75.88393,5.13059],[-75.87503,5.13223],[-75.86151,5.1175],[-75.84491,5.10558],[-75.83561,5.11735],[-75.83821,5.1273],[-75.83069,5.14571],[-75.83382,5.15008],[-75.82771,5.15397],[-75.82198,5.17244],[-75.81641,5.17548],[-75.8144,5.18792],[-75.80873,5.18853],[-75.8026,5.19851],[-75.80831,5.2074],[-75.80378,5.22659],[-75.80557,5.23583],[-75.81333,5.23559],[-75.8206,5.24374],[-75.82525,5.2594],[-75.82366,5.27012],[-75.83743,5.27139],[-75.83832,5.26797],[-75.8414,5.27154],[-75.85109,5.27276],[-75.867,5.26944],[-75.86813,5.27394]]]},"properties":{"DPTO_CCDGO":"66","MPIO_CCDGO":"088","MPIO_CDPMP":"66088","DPTO_CNMBRE":"RISARALDA","MPIO_CNMBRE":"BELÉN DE UMBRÍA","MPIO_NANO":2024}},{"type":"Feature","geometry":{"type":"Polygon","coordinates":[[[-75.71505,4.82013],[-75.70658,4.82275],[-75.69212,4.82098],[-75.64588,4.79219],[-75.63392,4.79727],[-75.63114,4.81102],[-75.62325,4.82429],[-75.63296,4.82653],[-75.62762,4.84299],[-75.63623,4.85212],[-75.64437,4.86795],[-75.64522,4.87728],[-75.65061,4.88331],[-75.66929,4.88359],[-75.67865,4.87808],[-75.68626,4.88161],[-75.68892,4.88886],[-75.70416,4.87019],[-75.70848,4.87303],[-75.71296,4.86462],[-75.71904,4.8296],[-75.71505,4.82013]]]},"properties":{"DPTO_CCDGO":"66","MPIO_CCDGO":"170","MPIO_CDPMP":"66170","DPTO_CNMBRE":"RISARALDA","MPIO_CNMBRE":"DOSQUEBRADAS","MPIO_NANO":2024}},{"type":"Feature","geometry":{"type":"Polygon","coordinates":[[[-75.75794,5.3867],[-75.7652,5.38599],[-75.79199,5.36564],[-75.79515,5.36805],[-75.81057,5.36208],[-75.81362,5.36512],[-75.81813,5.3626],[-75.82538,5.36432],[-75.82834,5.36741],[-75.84164,5.34283],[-75.84752,5.33677],[-75.85438,5.33738],[-75.8592,5.32018],[-75.85632,5.30617],[-75.84831,5.29882],[-75.85109,5.27276],[-75.8414,5.27154],[-75.83832,5.26797],[-75.83743,5.27139],[-75.81769,5.26995],[-75.80313,5.28119],[-75.79831,5.28018],[-75.78695,5.28482],[-75.77422,5.2741],[-75.76314,5.27337],[-75.75478,5.28284],[-75.74826,5.28433],[-75.751,5.29562],[-75.76199,5.31272],[-75.76928,5.32085],[-75.7794,5.32424],[-75.76278,5.35279],[-75.75712,5.37431],[-75.75116,5.38395],[-75.75794,5.3867]]]},"properties":{"DPTO_CCDGO":"66","MPIO_CCDGO":"318","MPIO_CDPMP":"66318","DPTO_CNMBRE":"RISARALDA","MPIO_CNMBRE":"GUÁTICA","MPIO_NANO":2024}},{"type":"Feature","geometry":{"type":"Polygon","coordinates":[[[-76.05765,5.03017],[-76.07386,5.04601],[-76.07931,5.04469],[-76.07842,5.03692],[-76.06615,5.02287],[-76.06453,5.0158],[-76.04909,5.00715],[-76.04809,4.99861],[-76.04427,4.99502],[-76.04588,4.98623],[-76.0334,4.96719],[-76.03393,4.95699],[-76.03012,4.95363],[-76.02771,4.9386],[-76.01381,4.93113],[-76.01161,4.92626],[-76.00195,4.9214],[-75.99411,4.91274],[-75.9902,4.91311],[-75.99149,4.92355],[-75.98555,4.9333],[-75.98552,4.94329],[-75.99182,4.94699],[-75.99357,4.9535],[-75.98486,4.95539],[-75.98563,4.96477],[-75.96487,4.96148],[-75.96296,4.98599],[-75.9605,4.98895],[-75.95396,4.98728],[-75.94555,4.98984],[-75.95738,4.99819],[-75.96109,5.01727],[-75.96781,5.02121],[-75.97962,5.01677],[-75.98457,5.01808],[-75.99132,5.02618],[-75.98919,5.03249],[-75.99244,5.03859],[-76.01112,5.03731],[-76.02334,5.0241],[-76.03711,5.02906],[-76.05765,5.03017]]]},"properties":{"DPTO_CCDGO":"66","MPIO_CCDGO":"383","MPIO_CDPMP":"66383","DPTO_CNMBRE":"RISARALDA","MPIO_CNMBRE":"LA CELIA","MPIO_NANO":2024}},{"type":"Feature","geometry":{"type":"Polygon","coordinates":[[[-75.8604,4.93466],[-75.86908,4.93333],[-75.86526,4.92772],[-75.87057,4.92291],[-75.87249,4.91415],[-75.87883,4.91437],[-75.88822,4.90945],[-75.88579,4.90434],[-75.88934,4.90443],[-75.88956,4.89767],[-75.88623,4.89295],[-75.84224,4.87014],[-75.83526,4.88363],[-75.83111,4.90189],[-75.81575,4.90531],[-75.81481,4.91944],[-75.8388,4.92928],[-75.85595,4.93026],[-75.8604,4.93466]]]},"properties":{"DPTO_CCDGO":"66","MPIO_CCDGO":"400","MPIO_CDPMP":"66400","DPTO_CNMBRE":"RISARALDA","MPIO_CNMBRE":"LA VIRGINIA","MPIO_NANO":2024}},{"type":"Feature","geometry":{"type":"Polygon","coordinates":[[[-75.73881,5.02829],[-75.74681,5.04682],[-75.75847,5.03787],[-75.76208,5.02483],[-75.77243,5.02008],[-75.77396,5.01478],[-75.77062,5.00748],[-75.7771,5.00632],[-75.78139,5.01038],[-75.7802,5.00316],[-75.78561,4.99605],[-75.77853,4.99317],[-75.78531,4.99007],[-75.78656,4.98397],[-75.79325,4.98012],[-75.7908,4.97489],[-75.79624,4.96634],[-75.78837,4.94938],[-75.79219,4.93777],[-75.80275,4.93649],[-75.8165,4.91591],[-75.81535,4.90608],[-75.80754,4.89959],[-75.80495,4.88847],[-75.78596,4.88816],[-75.77388,4.86957],[-75.76445,4.87181],[-75.73842,4.89091],[-75.73508,4.88815],[-75.7295,4.88996],[-75.72301,4.88398],[-75.71878,4.88512],[-75.70501,4.86969],[-75.69852,4.88003],[-75.69035,4.88503],[-75.68582,4.89768],[-75.68976,4.90528],[-75.69987,4.91026],[-75.70449,4.91904],[-75.71184,4.92421],[-75.71768,4.93701],[-75.71408,4.9585],[-75.71685,4.9742],[-75.71479,4.97695],[-75.72005,4.9833],[-75.71991,4.99272],[-75.72651,5.00201],[-75.72746,5.00959],[-75.73553,5.01993],[-75.73306,5.02269],[-75.73881,5.02829]]]},"properties":{"DPTO_CCDGO":"66","MPIO_CCDGO":"440","MPIO_CDPMP":"66440","DPTO_CNMBRE":"RISARALDA","MPIO_CNMBRE":"MARSELLA","MPIO_NANO":2024}},{"type":"Feature","geometry":{"type":"Polygon","coordinates":[[[-76.00824,5.56366],[-76.00885,5.56775],[-76.02049,5.56335],[-76.03704,5.56717],[-76.05376,5.55242],[-76.07375,5.54764],[-76.08543,5.53432],[-76.0794,5.52459],[-76.07557,5.49959],[-76.08039,5.48489],[-76.07778,5.47172],[-76.08809,5.44651],[-76.0816,5.42252],[-76.06857,5.39561],[-76.06178,5.36702],[-76.04671,5.37017],[-76.02034,5.36008],[-76.00308,5.35943],[-75.9773,5.34744],[-75.96752,5.34843],[-75.95634,5.3442],[-75.95234,5.32921],[-75.95876,5.31341],[-75.96103,5.28935],[-75.94949,5.27536],[-75.95251,5.27031],[-75.94554,5.26319],[-75.94616,5.25602],[-75.94089,5.25583],[-75.92431,5.24579],[-75.92576,5.25175],[-75.92174,5.25681],[-75.89408,5.25764],[-75.88446,5.27115],[-75.86901,5.27434],[-75.867,5.26944],[-75.85109,5.27276],[-75.84831,5.29882],[-75.85663,5.30682],[-75.85912,5.32522],[-75.85438,5.33738],[-75.84752,5.33677],[-75.84164,5.34283],[-75.83313,5.36108],[-75.83894,5.36984],[-75.84723,5.36958],[-75.85374,5.37428],[-75.86068,5.37171],[-75.85803,5.37751],[-75.85923,5.38534],[-75.85371,5.38923],[-75.85523,5.39429],[-75.85168,5.40259],[-75.85413,5.40564],[-75.85064,5.41248],[-75.85441,5.42553],[-75.85893,5.42775],[-75.85776,5.43819],[-75.86467,5.44506],[-75.86802,5.49024],[-75.87502,5.49038],[-75.88357,5.4834],[-75.90502,5.47986],[-75.9092,5.48687],[-75.92271,5.49303],[-75.9308,5.50887],[-75.95362,5.50918],[-75.95927,5.50508],[-75.96363,5.51205],[-75.98339,5.5194],[-75.98804,5.5285],[-75.98803,5.53733],[-75.99897,5.54151],[-76.0025,5.5602],[-76.00824,5.56366]]]},"properties":{"DPTO_CCDGO":"66","MPIO_CCDGO":"456","MPIO_CDPMP":"66456","DPTO_CNMBRE":"RISARALDA","MPIO_CNMBRE":"MISTRATÓ","MPIO_NANO":2024}},{"type":"Feature","geometry":{"type":"Polygon","coordinates":[[[-76.09237,5.44535],[-76.09802,5.44883],[-76.10245,5.44745],[-76.10967,5.44201],[-76.11899,5.42152],[-76.14356,5.41715],[-76.15248,5.40757],[-76.15743,5.41239],[-76.16813,5.41063],[-76.17798,5.40128],[-76.18395,5.41445],[-76.19122,5.41458],[-76.19056,5.39775],[-76.19935,5.37533],[-76.19703,5.37025],[-76.20412,5.36554],[-76.20104,5.36005],[-76.20308,5.3537],[-76.20627,5.34915],[-76.21143,5.34862],[-76.2072,5.34395],[-76.20429,5.34514],[-76.20136,5.33732],[-76.2033,5.33072],[-76.19809,5.32928],[-76.20132,5.32146],[-76.19724,5.31928],[-76.19089,5.30413],[-76.17752,5.28837],[-76.17704,5.27546],[-76.17288,5.27062],[-76.17362,5.26025],[-76.16543,5.25702],[-76.1622,5.2468],[-76.1507,5.24172],[-76.14202,5.23338],[-76.14249,5.20604],[-76.13796,5.20177],[-76.13355,5.18496],[-76.11776,5.16821],[-76.11141,5.16949],[-76.1035,5.1633],[-76.09632,5.16509],[-76.08545,5.15998],[-76.08358,5.15509],[-76.07705,5.15274],[-76.07709,5.1463],[-76.06802,5.13916],[-76.0614,5.13806],[-76.06049,5.13199],[-76.04252,5.14526],[-76.01628,5.14892],[-76.0082,5.15516],[-75.98849,5.15897],[-75.97672,5.17826],[-75.97714,5.19435],[-75.98593,5.20371],[-75.96821,5.22002],[-75.96346,5.23619],[-75.95892,5.2359],[-75.95381,5.22945],[-75.94325,5.22385],[-75.93084,5.22598],[-75.92431,5.24579],[-75.94089,5.25583],[-75.94616,5.25602],[-75.94554,5.26319],[-75.95251,5.27031],[-75.94949,5.27536],[-75.96103,5.28935],[-75.95876,5.31341],[-75.95234,5.32921],[-75.95634,5.3442],[-75.96752,5.34843],[-75.9773,5.34744],[-76.00308,5.35943],[-76.02034,5.36008],[-76.04671,5.37017],[-76.06178,5.36702],[-76.06857,5.39561],[-76.0816,5.42252],[-76.08809,5.44651],[-76.09237,5.44535]]]},"properties":{"DPTO_CCDGO":"66","MPIO_CCDGO":"572","MPIO_CDPMP":"66572","DPTO_CNMBRE":"RISARALDA","MPIO_CNMBRE":"PUEBLO RICO","MPIO_NANO":2024}},{"type":"Feature","geometry":{"type":"Polygon","coordinates":[[[-75.73885,5.39758],[-75.74359,5.39217],[-75.74211,5.38383],[-75.74984,5.38663],[-75.75486,5.37998],[-75.76278,5.35279],[-75.7794,5.32424],[-75.76928,5.32085],[-75.76199,5.31272],[-75.751,5.29562],[-75.74615,5.27509],[-75.7371,5.27079],[-75.73506,5.2645],[-75.71447,5.26286],[-75.71,5.25987],[-75.69873,5.26137],[-75.69211,5.25534],[-75.66623,5.26847],[-75.66679,5.27677],[-75.66278,5.2816],[-75.66199,5.29043],[-75.64825,5.30903],[-75.6512,5.31424],[-75.65985,5.31876],[-75.66171,5.33111],[-75.6666,5.33848],[-75.66617,5.354],[-75.68035,5.35627],[-75.68981,5.37124],[-75.69778,5.37645],[-75.69553,5.38325],[-75.69791,5.38734],[-75.71245,5.38625],[-75.72523,5.39714],[-75.73022,5.39517],[-75.73885,5.39758]]]},"properties":{"DPTO_CCDGO":"66","MPIO_CCDGO":"594","MPIO_CDPMP":"66594","DPTO_CNMBRE":"RISARALDA","MPIO_CNMBRE":"QUINCHÍA","MPIO_NANO":2024}},{"type":"Feature","geometry":{"type":"Polygon","coordinates":[[[-75.63635,4.9713],[-75.64107,4.97451],[-75.63916,4.96877],[-75.65416,4.95803],[-75.65266,4.95084],[-75.65532,4.94597],[-75.65985,4.94709],[-75.66598,4.94272],[-75.6776,4.9458],[-75.68229,4.94288],[-75.69818,4.94385],[-75.71423,4.9578],[-75.71775,4.93723],[-75.71196,4.92436],[-75.70449,4.91904],[-75.69987,4.91026],[-75.69444,4.90916],[-75.68608,4.90083],[-75.68904,4.8896],[-75.68626,4.88161],[-75.67528,4.87802],[-75.66929,4.88359],[-75.65727,4.8848],[-75.65061,4.88331],[-75.64529,4.8774],[-75.64247,4.86388],[-75.62762,4.84299],[-75.63296,4.82653],[-75.62325,4.82429],[-75.63114,4.81102],[-75.63392,4.79727],[-75.6458,4.79225],[-75.649,4.78691],[-75.64251,4.77829],[-75.629,4.77332],[-75.62499,4.76554],[-75.60627,4.75993],[-75.60357,4.74468],[-75.59414,4.74264],[-75.58851,4.73458],[-75.57262,4.72878],[-75.55051,4.71068],[-75.53738,4.70622],[-75.53468,4.70025],[-75.52292,4.69938],[-75.51285,4.70879],[-75.50075,4.70479],[-75.48561,4.71618],[-75.46871,4.72023],[-75.46666,4.73257],[-75.46097,4.73605],[-75.45497,4.73418],[-75.44906,4.73943],[-75.44571,4.75155],[-75.43656,4.76214],[-75.4199,4.77318],[-75.40881,4.79277],[-75.39537,4.78636],[-75.3755,4.80268],[-75.3858,4.79975],[-75.39961,4.80775],[-75.40554,4.80406],[-75.42687,4.81639],[-75.43016,4.83475],[-75.43768,4.83902],[-75.44004,4.84513],[-75.43751,4.84829],[-75.43875,4.85523],[-75.45193,4.86953],[-75.45635,4.8869],[-75.47295,4.89079],[-75.47427,4.90395],[-75.48405,4.91068],[-75.48009,4.91646],[-75.51193,4.92429],[-75.53746,4.91653],[-75.54198,4.92049],[-75.54338,4.92846],[-75.55737,4.92411],[-75.56459,4.9378],[-75.57488,4.933],[-75.58757,4.93456],[-75.59497,4.9262],[-75.60933,4.93393],[-75.61706,4.93141],[-75.61615,4.94991],[-75.6195,4.96246],[-75.62504,4.96721],[-75.62308,4.97096],[-75.63635,4.9713]]]},"properties":{"DPTO_CCDGO":"66","MPIO_CCDGO":"682","MPIO_CDPMP":"66682","DPTO_CNMBRE":"RISARALDA","MPIO_CNMBRE":"SANTA ROSA DE CABAL","MPIO_NANO":2024}},{"type":"Feature","geometry":{"type":"Polygon","coordinates":[[[-76.05555,5.12901],[-76.06096,5.13122],[-76.05893,5.11643],[-76.06198,5.1014],[-76.06979,5.095],[-76.06903,5.07461],[-76.07258,5.07171],[-76.07221,5.06247],[-76.07684,5.05456],[-76.077,5.04723],[-76.05765,5.03017],[-76.03711,5.02906],[-76.02404,5.02411],[-76.01112,5.03731],[-75.99033,5.03786],[-75.99144,5.02666],[-75.98618,5.01942],[-75.98118,5.01669],[-75.97095,5.02126],[-75.96266,5.01949],[-75.95612,4.99631],[-75.9377,4.98857],[-75.93562,4.97506],[-75.9199,4.96295],[-75.91739,4.95309],[-75.9113,4.95177],[-75.90491,4.94332],[-75.90069,4.94423],[-75.88912,4.92815],[-75.88145,4.92616],[-75.88161,4.91299],[-75.87249,4.91415],[-75.87057,4.92291],[-75.86526,4.92772],[-75.86916,4.93279],[-75.86443,4.93531],[-75.86664,4.94035],[-75.86355,4.93792],[-75.86073,4.94213],[-75.87081,4.94656],[-75.87301,4.95143],[-75.87994,4.95129],[-75.87997,4.95816],[-75.89216,4.96153],[-75.89173,4.96834],[-75.897,4.97334],[-75.89717,4.98271],[-75.90443,4.99573],[-75.90413,5.02401],[-75.91268,5.02842],[-75.92119,5.04172],[-75.92726,5.0413],[-75.93207,5.04911],[-75.93847,5.04761],[-75.95008,5.05462],[-75.95173,5.061],[-75.94662,5.06678],[-75.94646,5.07724],[-75.94234,5.08051],[-75.94596,5.08775],[-75.95254,5.08865],[-75.95551,5.08577],[-75.96716,5.09435],[-75.9729,5.09238],[-75.97337,5.10149],[-75.98012,5.10436],[-76.00043,5.12697],[-76.03254,5.12783],[-76.03873,5.12483],[-76.05123,5.13002],[-76.05555,5.12901]]]},"properties":{"DPTO_CCDGO":"66","MPIO_CCDGO":"687","MPIO_CDPMP":"66687","DPTO_CNMBRE":"RISARALDA","MPIO_CNMBRE":"SANTUARIO","MPIO_NANO":2024}}]}